[{"OBJECT_NAME":"STARLINK-5250","OBJECT_ID":"2022-141AV","EPOCH":"2026-03-09T04:13:26.246208","MEAN_MOTION":15.08837396,"ECCENTRICITY":0.00013598,"INCLINATION":53.2188,"RA_OF_ASC_NODE":356.1898,"ARG_OF_PERICENTER":85.347,"MEAN_ANOMALY":274.7677,"EPHEMERIS_TYPE":0,"CLASSIFICATION_TYPE":"U","NORAD_CAT_ID":54200,"ELEMENT_SET_NO":999,"REV_AT_EPOCH":18592,"BSTAR":3.2268615e-5,"MEAN_MOTION_DOT":2.26e-6,"MEAN_MOTION_DDOT":0},{"OBJECT_NAME":"CZ-6A DEB","OBJECT_ID":"2024-140YT","EPOCH":"2026-03-09T15:08:50.355168","MEAN_MOTION":14.80324244,"ECCENTRICITY":0.0130576,"INCLINATION":89.1165,"RA_OF_ASC_NODE":289.1796,"ARG_OF_PERICENTER":182.674,"MEAN_ANOMALY":177.3803,"EPHEMERIS_TYPE":0,"CLASSIFICATION_TYPE":"U","NORAD_CAT_ID":61426,"ELEMENT_SET_NO":999,"REV_AT_EPOCH":8306,"BSTAR":0.0013152,"MEAN_MOTION_DOT":0.00011629,"MEAN_MOTION_DDOT":0}]
